STARLINK-37998          
1 69679U 26145C   26200.00001157 -.00031641  00000+0 -21200-3 0  9993
2 69679  97.2840  47.0311 0001583  94.5603 355.5598 15.75194759  5030
STARLINK-37994          
1 69680U 26145D   26200.11260087  .00130936  00000+0  86558-3 0  9998
2 69680  97.2838  47.1452 0001615  85.5630 274.5820 15.75183032  3793
STARLINK-37992          
1 69681U 26145E   26200.11224827  .00163881  00000+0  10788-2 0  9997
2 69681  97.2832  47.1457 0001684  86.0420 274.1038 15.75186746  3794
STARLINK-37997          
1 69682U 26145F   26198.00002315 -.00003501  00000+0 -22625-4 0  9997
2 69682  97.2838  44.9322 0001192  99.5818 174.9569 15.75175815  4715
STARLINK-37990          
1 69683U 26145G   26200.04836781  .00156300  00000+0  10270-2 0  9993
2 69683  97.2840  47.0803 0001264  78.0087 282.1320 15.75250750  3782
STARLINK-37951          
1 69684U 26145H   26200.30142120  .00168727  00000+0  11073-2 0  9998
2 69684  97.2852  47.3479 0001739  76.0954 284.0505 15.75243670  3820
STARLINK-37957          
1 69685U 26145J   26200.10978328  .00126336  00000+0  83638-3 0  9991
2 69685  97.2858  47.1512 0002891  68.0455 292.1117 15.75159822  3790
STARLINK-37968          
1 69686U 26145K   26200.25002315 -.02576920  00000+0 -23004-1 0  9993
2 69686  97.2841  47.3100 0002088  79.8793  24.8084 15.71668487  5075
STARLINK-37977          
1 69687U 26145L   26200.10307504  .00143343  00000+0  94661-3 0  9990
2 69687  97.2841  47.1605 0001990  79.8690 280.2800 15.75170814  3798
STARLINK-37908          
1 69688U 26145M   26200.03742527  .00121440  00000+0  80255-3 0  9999
2 69688  97.2840  47.0975 0000645  93.4502 266.6837 15.75218650  3785
STARLINK-37979          
1 69689U 26145N   26200.03716597  .00187711  00000+0  12424-2 0  9993
2 69689  97.2836  47.0963 0004064 329.7447  30.3583 15.74987322  3782
STARLINK-37940          
1 69690U 26145P   26200.25002315 -.00190070  00000+0 -12980-2 0  9996
2 69690  97.2838  47.3239 0001532  92.2726  40.6013 15.75259798  5070
STARLINK-37961          
1 69691U 26145Q   26200.09636789  .00140378  00000+0  92744-3 0  9998
2 69691  97.2837  47.1685 0001513  84.6617 275.4820 15.75169816  3798
STARLINK-37787          
1 69692U 26145R   26200.09424881  .00142919  00000+0  94384-3 0  9992
2 69692  97.2838  47.1716 0001290  93.9513 266.1900 15.75172053  3798
STARLINK-37962          
1 69693U 26145S   26200.09248599  .00148488  00000+0  98006-3 0  9995
2 69693  97.2838  47.1747 0001588  79.1323 281.0121 15.75169121  3791
STARLINK-37953          
1 69694U 26145T   26200.09531428  .00118908  00000+0  78739-3 0  9997
2 69694  97.2820  47.1697 0002892  77.2614 282.8974 15.75176117  3796
STARLINK-37926          
1 69695U 26145U   26200.09460153  .00171556  00000+0  11297-2 0  9997
2 69695  97.2834  47.1720 0001094 102.6202 257.5185 15.75157401  3796
STARLINK-37959          
1 69696U 26145V   26200.09354377  .00129796  00000+0  85839-3 0  9991
2 69696  97.2842  47.1721 0001377  86.6888 273.4534 15.75177234  3793
STARLINK-37976          
1 69697U 26145W   26200.09072059  .00158985  00000+0  10479-2 0  9995
2 69697  97.2841  47.1767 0001635  87.4841 272.6612 15.75171966  3792
STARLINK-37912          
1 69698U 26145X   26200.08966272  .00163336  00000+0  10759-2 0  9991
2 69698  97.2833  47.1783 0001628  85.0056 275.1395 15.75173624  3795
STARLINK-37974          
1 69699U 26145Y   26200.08896286  .00168164  00000+0  11060-2 0  9999
2 69699  97.2840  47.1795 0003203  72.4646 287.6969 15.75191331  3793
STARLINK-37955          
1 69700U 26145Z   26200.08648904  .00128552  00000+0  84983-3 0  9996
2 69700  97.2848  47.1847 0002036  89.2026 270.9472 15.75189060  3793
STRIX-8                 
1 69701U 26146A   26200.26863989  .00002261  00000+0  17232-3 0  9991
2 69701  41.9907 350.5278 0006616  51.9690 308.1734 15.04454253  3398
ELECTRON R/B            
1 69702U 26146B   26200.09524301  .00425357  66509-4  95769-3 0  9992
2 69702  42.0718 338.5693 0158416  47.8298 313.5889 15.78483598  3523
ELECTRON KICK STAGE R/B 
1 69703U 26146C   26200.12820816  .00001974  00000+0  15018-3 0  9990
2 69703  41.9889 351.2015 0008446  51.6795 308.4791 15.04960127  3378
STARLINK-38055          
1 69704U 26147A   26200.09390378  .00113919  00000+0  58609-3 0  9999
2 69704  97.2831 236.7058 0001152  78.2847 281.8550 15.80877646  4470
STARLINK-37898          
1 69705U 26147B   26200.09307073  .00128166  00000+0  65903-3 0  9995
2 69705  97.2838 236.7074 0001232  89.2191 270.9219 15.80850656  4472
STARLINK-37970          
1 69706U 26147C   26200.09232810  .00173461  00000+0  88775-3 0  9992
2 69706  97.2835 236.7087 0001905 343.6623  16.4584 15.80832240  4475
STARLINK-37975          
1 69707U 26147D   26200.09157806  .00180157  00000+0  92042-3 0  9996
2 69707  97.2831 236.7095 0002304  30.9053 329.2351 15.80852007  4478
STARLINK-37972          
1 69708U 26147E   26200.09082437  .00162882  00000+0  83457-3 0  9999
2 69708  97.2825 236.7106 0000747  49.4046 310.7287 15.80835880  4474
