OBJECT_NAME,OBJECT_ID,EPOCH,MEAN_MOTION,ECCENTRICITY,INCLINATION,RA_OF_ASC_NODE,ARG_OF_PERICENTER,MEAN_ANOMALY,EPHEMERIS_TYPE,CLASSIFICATION_TYPE,NORAD_CAT_ID,ELEMENT_SET_NO,REV_AT_EPOCH,BSTAR,MEAN_MOTION_DOT,MEAN_MOTION_DDOT
STARLINK-37998,2026-145C,2026-07-19T00:00:00.999648,15.75194759,.00015835,97.2840,47.0311,94.5603,355.5598,0,U,69679,999,503,-.21200242E-3,-.31641E-3,0
STARLINK-37994,2026-145D,2026-07-19T02:42:08.715168,15.75183032,.00016154,97.2838,47.1452,85.5630,274.5820,0,U,69680,999,379,.86557759E-3,.130936E-2,0
STARLINK-37992,2026-145E,2026-07-19T02:41:38.250528,15.75186746,.0001684,97.2832,47.1457,86.0420,274.1038,0,U,69681,999,379,.10787814E-2,.163881E-2,0
STARLINK-37997,2026-145F,2026-07-17T00:00:02.000160,15.75175815,.00011924,97.2838,44.9322,99.5818,174.9569,0,U,69682,999,471,-.22624739E-4,-.3501E-4,0
STARLINK-37990,2026-145G,2026-07-19T01:09:38.978784,15.75250750,.00012648,97.2840,47.0803,78.0087,282.1320,0,U,69683,999,378,.10270089E-2,.1563E-2,0
STARLINK-37951,2026-145H,2026-07-19T07:14:02.791680,15.75243670,.00017397,97.2852,47.3479,76.0954,284.0505,0,U,69684,999,382,.11072973E-2,.168727E-2,0
STARLINK-37957,2026-145J,2026-07-19T02:38:05.275392,15.75159822,.00028915,97.2858,47.1512,68.0455,292.1117,0,U,69685,999,379,.8363849E-3,.126336E-2,0
STARLINK-37968,2026-145K,2026-07-19T06:00:02.000160,15.71668487,.00020884,97.2841,47.3100,79.8793,24.8084,0,U,69686,999,507,-.23004224E-1,-.257692E-1,0
STARLINK-37977,2026-145L,2026-07-19T02:28:25.683456,15.75170814,.00019907,97.2841,47.1605,79.8690,280.2800,0,U,69687,999,379,.94660965E-3,.143343E-2,0
STARLINK-37908,2026-145M,2026-07-19T00:53:53.543328,15.75218650,.00006454,97.2840,47.0975,93.4502,266.6837,0,U,69688,999,378,.80254907E-3,.12144E-2,0
STARLINK-37979,2026-145N,2026-07-19T00:53:31.139808,15.74987322,.0004064,97.2836,47.0963,329.7447,30.3583,0,U,69689,999,378,.12423645E-2,.187711E-2,0
STARLINK-37940,2026-145P,2026-07-19T06:00:02.000160,15.75259798,.00015323,97.2838,47.3239,92.2726,40.6013,0,U,69690,999,507,-.12979648E-2,-.19007E-2,0
STARLINK-37961,2026-145Q,2026-07-19T02:18:46.185696,15.75169816,.00015138,97.2837,47.1685,84.6617,275.4820,0,U,69691,999,379,.9274386E-3,.140378E-2,0
STARLINK-37787,2026-145R,2026-07-19T02:15:43.097184,15.75172053,.00012903,97.2838,47.1716,93.9513,266.1900,0,U,69692,999,379,.94384345E-3,.142919E-2,0
STARLINK-37962,2026-145S,2026-07-19T02:13:10.789536,15.75169121,.00015884,97.2838,47.1747,79.1323,281.0121,0,U,69693,999,379,.98005765E-3,.148488E-2,0
STARLINK-37953,2026-145T,2026-07-19T02:17:15.153792,15.75176117,.00028922,97.2820,47.1697,77.2614,282.8974,0,U,69694,999,379,.78738845E-3,.118908E-2,0
STARLINK-37926,2026-145U,2026-07-19T02:16:13.572192,15.75157401,.00010948,97.2834,47.1720,102.6202,257.5185,0,U,69695,999,379,.11296951E-2,.171556E-2,0
STARLINK-37959,2026-145V,2026-07-19T02:14:42.181728,15.75177234,.00013778,97.2842,47.1721,86.6888,273.4534,0,U,69696,999,379,.85839171E-3,.129796E-2,0
STARLINK-37976,2026-145W,2026-07-19T02:10:38.258976,15.75171966,.00016358,97.2841,47.1767,87.4841,272.6612,0,U,69697,999,379,.10478517E-2,.158985E-2,0
STARLINK-37912,2026-145X,2026-07-19T02:09:06.859008,15.75173624,.0001628,97.2833,47.1783,85.0056,275.1395,0,U,69698,999,379,.10758798E-2,.163336E-2,0
STARLINK-37974,2026-145Y,2026-07-19T02:08:06.391104,15.75191331,.00032033,97.2840,47.1795,72.4646,287.6969,0,U,69699,999,379,.11060149E-2,.168164E-2,0
STARLINK-37955,2026-145Z,2026-07-19T02:04:32.653056,15.75189060,.00020361,97.2848,47.1847,89.2026,270.9472,0,U,69700,999,379,.84982663E-3,.128552E-2,0
STRIX-8,2026-146A,2026-07-19T06:26:50.486496,15.04454253,.00066167,41.9907,350.5278,51.9690,308.1734,0,U,69701,999,339,.17232409E-3,.2261E-4,0
ELECTRON R/B,2026-146B,2026-07-19T02:17:08.996064,15.78483598,.01584161,42.0718,338.5693,47.8298,313.5889,0,U,69702,999,352,.95768948E-3,.425357E-2,.66509338E-4
ELECTRON KICK STAGE R/B,2026-146C,2026-07-19T03:04:37.185024,15.04960127,.00084465,41.9889,351.2015,51.6795,308.4791,0,U,69703,999,337,.15018108E-3,.1974E-4,0
STARLINK-38055,2026-147A,2026-07-19T02:15:13.286592,15.80877646,.00011524,97.2831,236.7058,78.2847,281.8550,0,U,69704,999,447,.58609175E-3,.113919E-2,0
STARLINK-37898,2026-147B,2026-07-19T02:14:01.311072,15.80850656,.00012322,97.2838,236.7074,89.2191,270.9219,0,U,69705,999,447,.65902993E-3,.128166E-2,0
STARLINK-37970,2026-147C,2026-07-19T02:12:57.147840,15.80832240,.00019058,97.2835,236.7087,343.6623,16.4584,0,U,69706,999,447,.88775489E-3,.173461E-2,0
STARLINK-37975,2026-147D,2026-07-19T02:11:52.344384,15.80852007,.00023049,97.2831,236.7095,30.9053,329.2351,0,U,69707,999,447,.92042209E-3,.180157E-2,0
STARLINK-37972,2026-147E,2026-07-19T02:10:47.225568,15.80835880,.00007472,97.2825,236.7106,49.4046,310.7287,0,U,69708,999,447,.83456578E-3,.162882E-2,0
